start=new Date('2022-01-28T00:00:00.000Z').valueOf();
sats=[{"MEAN_MOTION_DOT":"-0.00001802","MEAN_ELEMENT_THEORY":"SGP4","MEAN_MOTION":"15.06397933","PERIAPSIS":"546.202","EPOCH":"2022-01-27T13:32:06.770400","RA_OF_ASC_NODE":"79.9170","MEAN_MOTION_DDOT":"0.0000000000000","DECAY_DATE":null,"SEMIMAJOR_AXIS":"6925.355","OBJECT_NAME":"STARLINK-1697","APOAPSIS":"548.238","GP_ID":"194753214","INCLINATION":"53.0540","BSTAR":"-0.00010209000000","REV_AT_EPOCH":"7280","RCS_SIZE":"LARGE","OBJECT_ID":"2020-070Q","TIME_SYSTEM":"UTC","REF_FRAME":"TEME","MEAN_ANOMALY":"287.6855","NORAD_CAT_ID":"46546","OBJECT_TYPE":"PAYLOAD","TLE_LINE2":"2 46546  53.0540  79.9170 0001470  72.4294 287.6855 15.06397933 72801","CENTER_NAME":"EARTH","LAUNCH_DATE":"2020-10-06","CLASSIFICATION_TYPE":"U","ECCENTRICITY":"0.00014700","EPHEMERIS_TYPE":"0","FILE":"3285283","ARG_OF_PERICENTER":"72.4294","COUNTRY_CODE":"US","SITE":"AFETR","ELEMENT_SET_NO":"999","TLE_LINE1":"1 46546U 20070Q   22027.56396725 -.00001802  00000-0 -10209-3 0  9998","PERIOD":"95.592"},{"MEAN_ANOMALY":"292.4950","NORAD_CAT_ID":"46547","OBJECT_TYPE":"PAYLOAD","OBJECT_ID":"2020-070R","TIME_SYSTEM":"UTC","REF_FRAME":"TEME","ECCENTRICITY":"0.00016530","LAUNCH_DATE":"2020-10-06","CLASSIFICATION_TYPE":"U","TLE_LINE2":"2 46547  53.0538  79.4920 0001653  67.6214 292.4950 15.06397374 73134","CENTER_NAME":"EARTH","FILE":"3285308","EPHEMERIS_TYPE":"0","TLE_LINE1":"1 46547U 20070R   22027.65980273 -.00001282  00000-0 -67212-4 0  9995","PERIOD":"95.592","COUNTRY_CODE":"US","ARG_OF_PERICENTER":"67.6214","SITE":"AFETR","ELEMENT_SET_NO":"999","MEAN_ELEMENT_THEORY":"SGP4","MEAN_MOTION":"15.06397374","PERIAPSIS":"546.077","MEAN_MOTION_DOT":"-0.00001282","RA_OF_ASC_NODE":"79.4920","MEAN_MOTION_DDOT":"0.0000000000000","DECAY_DATE":null,"EPOCH":"2022-01-27T15:50:06.955872","SEMIMAJOR_AXIS":"6925.357","OBJECT_NAME":"STARLINK-1698","APOAPSIS":"548.366","GP_ID":"194753232","REV_AT_EPOCH":"7313","RCS_SIZE":"LARGE","INCLINATION":"53.0538","BSTAR":"-0.00006721200000"},{"DECAY_DATE":null,"RA_OF_ASC_NODE":"80.6418","MEAN_MOTION_DDOT":"0.0000000000000","EPOCH":"2022-01-27T09:43:52.311648","PERIAPSIS":"546.171","MEAN_MOTION":"15.06413441","MEAN_ELEMENT_THEORY":"SGP4","MEAN_MOTION_DOT":"0.00004057","RCS_SIZE":"LARGE","REV_AT_EPOCH":"7309","BSTAR":"0.00029099000000","INCLINATION":"53.0537","GP_ID":"194753251","OBJECT_NAME":"STARLINK-1699","APOAPSIS":"548.174","SEMIMAJOR_AXIS":"6925.307","LAUNCH_DATE":"2020-10-06","CLASSIFICATION_TYPE":"U","ECCENTRICITY":"0.00014460","CENTER_NAME":"EARTH","TLE_LINE2":"2 46548  53.0537  80.6418 0001446  83.1696 276.9458 15.06413441 73096","OBJECT_TYPE":"PAYLOAD","NORAD_CAT_ID":"46548","MEAN_ANOMALY":"276.9458","REF_FRAME":"TEME","TIME_SYSTEM":"UTC","OBJECT_ID":"2020-070S","PERIOD":"95.591","TLE_LINE1":"1 46548U 20070S   22027.40546657  .00004057  00000-0  29099-3 0  9994","ELEMENT_SET_NO":"999","SITE":"AFETR","ARG_OF_PERICENTER":"83.1696","COUNTRY_CODE":"US","FILE":"3285284","EPHEMERIS_TYPE":"0"},{"ELEMENT_SET_NO":"999","ARG_OF_PERICENTER":"74.1962","COUNTRY_CODE":"US","SITE":"AFETR","TLE_LINE1":"1 46549U 20070T   22027.56765213 -.00000497  00000-0 -14468-4 0  9994","PERIOD":"95.592","FILE":"3284946","EPHEMERIS_TYPE":"0","CENTER_NAME":"EARTH","TLE_LINE2":"2 46549  53.0536  79.9039 0001190  74.1962 285.9158 15.06397034 73094","ECCENTRICITY":"0.00011900","LAUNCH_DATE":"2020-10-06","CLASSIFICATION_TYPE":"U","REF_FRAME":"TEME","OBJECT_ID":"2020-070T","TIME_SYSTEM":"UTC","OBJECT_TYPE":"PAYLOAD","MEAN_ANOMALY":"285.9158","NORAD_CAT_ID":"46549","BSTAR":"-0.00001446800000","INCLINATION":"53.0536","REV_AT_EPOCH":"7309","RCS_SIZE":"LARGE","GP_ID":"194742149","SEMIMAJOR_AXIS":"6925.358","OBJECT_NAME":"STARLINK-1700","APOAPSIS":"548.047","EPOCH":"2022-01-27T13:37:25.144032","DECAY_DATE":null,"RA_OF_ASC_NODE":"79.9039","MEAN_MOTION_DDOT":"0.0000000000000","MEAN_MOTION_DOT":"-0.00000497","MEAN_MOTION":"15.06397034","PERIAPSIS":"546.399","MEAN_ELEMENT_THEORY":"SGP4"},{"SEMIMAJOR_AXIS":"6925.306","OBJECT_NAME":"STARLINK-1701","APOAPSIS":"548.185","GP_ID":"194753245","INCLINATION":"53.0544","BSTAR":"0.00039741000000","REV_AT_EPOCH":"7311","RCS_SIZE":"LARGE","MEAN_MOTION_DOT":"0.00005645","MEAN_ELEMENT_THEORY":"SGP4","MEAN_MOTION":"15.06413743","PERIAPSIS":"546.158","EPOCH":"2022-01-27T13:16:11.129376","MEAN_MOTION_DDOT":"0.0000000000000","RA_OF_ASC_NODE":"79.9744","DECAY_DATE":null,"FILE":"3285284","EPHEMERIS_TYPE":"0","COUNTRY_CODE":"US","ARG_OF_PERICENTER":"60.8739","SITE":"AFETR","ELEMENT_SET_NO":"999","TLE_LINE1":"1 46550U 20070U   22027.55290659  .00005645  00000-0  39741-3 0  9990","PERIOD":"95.591","OBJECT_ID":"2020-070U","TIME_SYSTEM":"UTC","REF_FRAME":"TEME","MEAN_ANOMALY":"299.2396","NORAD_CAT_ID":"46550","OBJECT_TYPE":"PAYLOAD","TLE_LINE2":"2 46550  53.0544  79.9744 0001464  60.8739 299.2396 15.06413743 73117","CENTER_NAME":"EARTH","LAUNCH_DATE":"2020-10-06","CLASSIFICATION_TYPE":"U","ECCENTRICITY":"0.00014640"},{"CLASSIFICATION_TYPE":"U","LAUNCH_DATE":"2020-10-06","ECCENTRICITY":"0.00015660","TLE_LINE2":"2 46552  53.0537  65.1512 0001566  73.2570 286.8590 15.06408955 73303","CENTER_NAME":"EARTH","NORAD_CAT_ID":"46552","MEAN_ANOMALY":"286.8590","OBJECT_TYPE":"PAYLOAD","TIME_SYSTEM":"UTC","OBJECT_ID":"2020-070W","REF_FRAME":"TEME","TLE_LINE1":"1 46552U 20070W   22027.51190226  .00005829  00000-0  40979-3 0  9996","PERIOD":"95.592","SITE":"AFETR","COUNTRY_CODE":"US","ARG_OF_PERICENTER":"73.2570","ELEMENT_SET_NO":"999","FILE":"3284946","EPHEMERIS_TYPE":"0","MEAN_MOTION_DDOT":"0.0000000000000","RA_OF_ASC_NODE":"65.1512","DECAY_DATE":null,"EPOCH":"2022-01-27T12:17:08.355264","MEAN_ELEMENT_THEORY":"SGP4","PERIAPSIS":"546.102","MEAN_MOTION":"15.06408955","MEAN_MOTION_DOT":"0.00005829","RCS_SIZE":"LARGE","REV_AT_EPOCH":"7330","INCLINATION":"53.0537","BSTAR":"0.00040979000000","OBJECT_NAME":"STARLINK-1649","APOAPSIS":"548.271","SEMIMAJOR_AXIS":"6925.321","GP_ID":"194741150"},{"TIME_SYSTEM":"UTC","OBJECT_ID":"2020-070X","REF_FRAME":"TEME","NORAD_CAT_ID":"46553","MEAN_ANOMALY":"287.4472","OBJECT_TYPE":"PAYLOAD","TLE_LINE2":"2 46553  53.0537  50.3311 0001604  72.6693 287.4472 15.06411670 73516","CENTER_NAME":"EARTH","LAUNCH_DATE":"2020-10-06","CLASSIFICATION_TYPE":"U","ECCENTRICITY":"0.00016040","EPHEMERIS_TYPE":"0","FILE":"3285271","SITE":"AFETR","ARG_OF_PERICENTER":"72.6693","COUNTRY_CODE":"US","ELEMENT_SET_NO":"999","TLE_LINE1":"1 46553U 20070X   22027.47363226  .00003043  00000-0  22305-3 0  9993","PERIOD":"95.591","MEAN_MOTION_DOT":"0.00003043","MEAN_ELEMENT_THEORY":"SGP4","PERIAPSIS":"546.067","MEAN_MOTION":"15.06411670","EPOCH":"2022-01-27T11:22:01.827264","MEAN_MOTION_DDOT":"0.0000000000000","RA_OF_ASC_NODE":"50.3311","DECAY_DATE":null,"APOAPSIS":"548.289","OBJECT_NAME":"STARLINK-1664","SEMIMAJOR_AXIS":"6925.313","GP_ID":"194753098","INCLINATION":"53.0537","BSTAR":"0.00022305000000","RCS_SIZE":"LARGE","REV_AT_EPOCH":"7351"},{"MEAN_ELEMENT_THEORY":"SGP4","PERIAPSIS":"546.244","MEAN_MOTION":"15.06373643","MEAN_MOTION_DOT":"-0.00003413","MEAN_MOTION_DDOT":"0.0000000000000","RA_OF_ASC_NODE":"65.0881","DECAY_DATE":null,"EPOCH":"2022-01-27T12:38:24.821088","APOAPSIS":"548.345","OBJECT_NAME":"STARLINK-1671","SEMIMAJOR_AXIS":"6925.429","GP_ID":"194753134","RCS_SIZE":"LARGE","REV_AT_EPOCH":"7331","INCLINATION":"53.0541","BSTAR":"-0.00021050000000","NORAD_CAT_ID":"46554","MEAN_ANOMALY":"277.4639","OBJECT_TYPE":"PAYLOAD","TIME_SYSTEM":"UTC","OBJECT_ID":"2020-070Y","REF_FRAME":"TEME","CLASSIFICATION_TYPE":"U","LAUNCH_DATE":"2020-10-06","ECCENTRICITY":"0.00015170","TLE_LINE2":"2 46554  53.0541  65.0881 0001517  82.6522 277.4639 15.06373643 73311","CENTER_NAME":"EARTH","FILE":"3285273","EPHEMERIS_TYPE":"0","TLE_LINE1":"1 46554U 20070Y   22027.52667617 -.00003413  00000-0 -21050-3 0  9990","PERIOD":"95.594","SITE":"AFETR","COUNTRY_CODE":"US","ARG_OF_PERICENTER":"82.6522","ELEMENT_SET_NO":"999"},{"OBJECT_TYPE":"PAYLOAD","MEAN_ANOMALY":"290.7727","NORAD_CAT_ID":"46556","REF_FRAME":"TEME","OBJECT_ID":"2020-070AA","TIME_SYSTEM":"UTC","LAUNCH_DATE":"2020-10-06","CLASSIFICATION_TYPE":"U","ECCENTRICITY":"0.00015460","CENTER_NAME":"EARTH","TLE_LINE2":"2 46556  53.0547  80.1325 0001546  69.3428 290.7727 15.06412029 73115","FILE":"3285357","EPHEMERIS_TYPE":"0","TLE_LINE1":"1 46556U 20070AA  22027.51972714  .00001434  00000-0  11512-3 0  9999","PERIOD":"95.591","ELEMENT_SET_NO":"999","COUNTRY_CODE":"US","ARG_OF_PERICENTER":"69.3428","SITE":"AFETR","MEAN_MOTION":"15.06412029","PERIAPSIS":"546.106","MEAN_ELEMENT_THEORY":"SGP4","MEAN_MOTION_DOT":"0.00001434","DECAY_DATE":null,"MEAN_MOTION_DDOT":"0.0000000000000","RA_OF_ASC_NODE":"80.1325","EPOCH":"2022-01-27T12:28:24.424896","GP_ID":"194754869","SEMIMAJOR_AXIS":"6925.312","OBJECT_NAME":"STARLINK-1676","APOAPSIS":"548.247","REV_AT_EPOCH":"7311","RCS_SIZE":"LARGE","BSTAR":"0.00011512000000","INCLINATION":"53.0547"},{"RA_OF_ASC_NODE":"65.8218","MEAN_MOTION_DDOT":"0.0000000000000","DECAY_DATE":null,"EPOCH":"2022-01-27T08:44:48.988896","MEAN_ELEMENT_THEORY":"SGP4","MEAN_MOTION":"15.06411266","PERIAPSIS":"546.304","MEAN_MOTION_DOT":"0.00001986","REV_AT_EPOCH":"7328","RCS_SIZE":"LARGE","INCLINATION":"53.0554","BSTAR":"0.00015213000000","SEMIMAJOR_AXIS":"6925.314","APOAPSIS":"548.054","OBJECT_NAME":"STARLINK-1679","GP_ID":"194741650","LAUNCH_DATE":"2020-10-06","ECCENTRICITY":"0.00012630","CLASSIFICATION_TYPE":"U","TLE_LINE2":"2 46557  53.0554  65.8218 0001263  80.0704 280.0427 15.06411266 73287","CENTER_NAME":"EARTH","MEAN_ANOMALY":"280.0427","NORAD_CAT_ID":"46557","OBJECT_TYPE":"PAYLOAD","OBJECT_ID":"2020-070AB","TIME_SYSTEM":"UTC","REF_FRAME":"TEME","PERIOD":"95.591","TLE_LINE1":"1 46557U 20070AB  22027.36445589  .00001986  00000-0  15213-3 0  9992","ARG_OF_PERICENTER":"80.0704","COUNTRY_CODE":"US","SITE":"AFETR","ELEMENT_SET_NO":"999","FILE":"3284946","EPHEMERIS_TYPE":"0"}];
